STARLINK-1834
1 16781C 20074AU  21326.12294478  .00004526  00000-0  30338-3 0  3261
2 16781  53.0514 163.1935 0001873  83.9670 168.0032 15.06375837    12
